0 COSMOS 1933
1 18958U 88020A   13282.46531693  .00000972  00000-0  77144-4 0  1135
2 18958 082.5303 320.5276 0013275 168.4529 191.7002 14.99378448389391
0 COSMOS 1933
1 18958U 88020A   13283.46636070  .00001101  00000-0  87659-4 0  1149
2 18958 082.5302 319.5675 0013335 165.2888 194.8726 14.99378523389549
0 COSMOS 1933
1 18958U 88020A   13286.13580669  .00001507  00000-0  12079-3 0  1163
2 18958 082.5296 317.0074 0013505 156.8791 203.3043 14.99380749389940
0 COSMOS 1933
1 18958U 88020A   13287.13684782  .00001680  00000-0  13492-3 0  1178
2 18958 082.5295 316.0473 0013576 153.7586 206.4328 14.99382830390098
0 COSMOS 1933
1 18958U 88020A   13288.13788821  .00002157  00000-0  17380-3 0  1189
2 18958 082.5293 315.0870 0013641 150.6742 209.5250 14.99389642390242
0 COSMOS 1933
1 18958U 88020A   13289.47260402  .00001359  00000-0  10866-3 0  1193
2 18958 082.5292 313.8066 0013756 146.6502 213.5591 14.99397782390449
0 COSMOS 1933
1 18958U 88020A   13291.14098892  .00001191  00000-0  94903-4 0  1203
2 18958 082.5291 312.2060 0013849 141.5593 218.6620 14.99403481390692
0 COSMOS 1933
1 18958U 88020A   13292.47569016  .00001386  00000-0  11079-3 0  1210
2 18958 082.5292 310.9255 0013940 137.4424 222.7882 14.99406020390893
0 COSMOS 1933
1 18958U 88020A   13293.47671367  .00001591  00000-0  12756-3 0  1226
2 18958 082.5293 309.9651 0014022 134.3818 225.8557 14.99407376391043
0 COSMOS 1933
1 18958U 88020A   13294.47773582  .00001747  00000-0  14026-3 0  1235
2 18958 082.5294 309.0049 0014069 131.3099 228.9338 14.99409200391190
0 COSMOS 1933
1 18958U 88020A   13295.47875637  .00002027  00000-0  16311-3 0  1242
2 18958 082.5294 308.0446 0014086 128.2135 232.0359 14.99410986391344
